0 DELTA 1 DEB
1 10648U 76077J   13281.47184212  .00000092  00000-0  12524-2 0  7568
2 10648 101.9332 132.8809 0133442 026.4618 088.9542 12.20118753655142
0 DELTA 1 DEB
1 10648U 76077J   13283.83876399  .00000133  00000-0  16408-2 0  7576
2 10648 101.9326 135.1162 0133502 022.2602 045.4430 12.20119890655436
0 DELTA 1 DEB
1 10648U 76077J   13286.54175475  .00000149  00000-0  17914-2 0  7585
2 10648 101.9318 137.6688 0133746 017.4937 038.0587 12.20121033655763
0 DELTA 1 DEB
1 10648U 76077J   13290.16336066  .00000164  00000-0  19334-2 0  7599
2 10648 101.9309 141.0887 0133961 011.1032 105.6267 12.20123230656206
0 DELTA 1 DEB
1 10648U 76077J   13292.45897175  .00000114  00000-0  14596-2 0  7608
2 10648 101.9306 143.2564 0134240 007.1030 108.8445 12.20124152656480
0 DELTA 1 DEB
1 10648U 76077J   13294.82503742  .00000130  00000-0  16136-2 0  7616
2 10648 101.9304 145.4903 0134414 002.9552 061.5652 12.20125185656778
